<?xml version="1.0" encoding="UTF-8"?>
<ndm xmlns:xsi="http://www.w3.org/2001/XMLSchema-instance" xsi:noNamespaceSchemaLocation="https://sanaregistry.org/r/ndmxml_unqualified/ndmxml-2.0.0-master-2.0.xsd">
<omm id="CCSDS_OMM_VERS" version="2.0">
<header><CREATION_DATE/><ORIGINATOR/></header><body><segment><metadata><OBJECT_NAME>ONEWEB-0628</OBJECT_NAME><OBJECT_ID>2023-004AF</OBJECT_ID><CENTER_NAME>EARTH</CENTER_NAME><REF_FRAME>TEME</REF_FRAME><TIME_SYSTEM>UTC</TIME_SYSTEM><MEAN_ELEMENT_THEORY>SGP4</MEAN_ELEMENT_THEORY></metadata><data><meanElements><EPOCH>2024-12-23T19:21:04.321728</EPOCH><MEAN_MOTION>13.12445091</MEAN_MOTION><ECCENTRICITY>.0002359</ECCENTRICITY><INCLINATION>87.8888</INCLINATION><RA_OF_ASC_NODE>98.2431</RA_OF_ASC_NODE><ARG_OF_PERICENTER>94.7063</ARG_OF_PERICENTER><MEAN_ANOMALY>265.4335</MEAN_ANOMALY></meanElements><tleParameters><EPHEMERIS_TYPE>0</EPHEMERIS_TYPE><CLASSIFICATION_TYPE>U</CLASSIFICATION_TYPE><NORAD_CAT_ID>55169</NORAD_CAT_ID><ELEMENT_SET_NO>999</ELEMENT_SET_NO><REV_AT_EPOCH>9715</REV_AT_EPOCH><BSTAR>.96943E-3</BSTAR><MEAN_MOTION_DOT>.362E-5</MEAN_MOTION_DOT><MEAN_MOTION_DDOT>0</MEAN_MOTION_DDOT></tleParameters></data></segment></body></omm>
<omm id="CCSDS_OMM_VERS" version="2.0">
<header><CREATION_DATE/><ORIGINATOR/></header><body><segment><metadata><OBJECT_NAME>ONEWEB-0629</OBJECT_NAME><OBJECT_ID>2023-004AG</OBJECT_ID><CENTER_NAME>EARTH</CENTER_NAME><REF_FRAME>TEME</REF_FRAME><TIME_SYSTEM>UTC</TIME_SYSTEM><MEAN_ELEMENT_THEORY>SGP4</MEAN_ELEMENT_THEORY></metadata><data><meanElements><EPOCH>2024-12-23T19:51:50.275872</EPOCH><MEAN_MOTION>13.17649665</MEAN_MOTION><ECCENTRICITY>.0001684</ECCENTRICITY><INCLINATION>87.9100</INCLINATION><RA_OF_ASC_NODE>113.5172</RA_OF_ASC_NODE><ARG_OF_PERICENTER>89.1304</ARG_OF_PERICENTER><MEAN_ANOMALY>271.0021</MEAN_ANOMALY></meanElements><tleParameters><EPHEMERIS_TYPE>0</EPHEMERIS_TYPE><CLASSIFICATION_TYPE>U</CLASSIFICATION_TYPE><NORAD_CAT_ID>55170</NORAD_CAT_ID><ELEMENT_SET_NO>999</ELEMENT_SET_NO><REV_AT_EPOCH>9642</REV_AT_EPOCH><BSTAR>-.37477E-4</BSTAR><MEAN_MOTION_DOT>-.2E-7</MEAN_MOTION_DOT><MEAN_MOTION_DDOT>0</MEAN_MOTION_DDOT></tleParameters></data></segment></body></omm>
<omm id="CCSDS_OMM_VERS" version="2.0">
<header><CREATION_DATE/><ORIGINATOR/></header><body><segment><metadata><OBJECT_NAME>ONEWEB-0631</OBJECT_NAME><OBJECT_ID>2023-004AH</OBJECT_ID><CENTER_NAME>EARTH</CENTER_NAME><REF_FRAME>TEME</REF_FRAME><TIME_SYSTEM>UTC</TIME_SYSTEM><MEAN_ELEMENT_THEORY>SGP4</MEAN_ELEMENT_THEORY></metadata><data><meanElements><EPOCH>2024-12-23T06:04:46.879968</EPOCH><MEAN_MOTION>13.18685419</MEAN_MOTION><ECCENTRICITY>.0002148</ECCENTRICITY><INCLINATION>87.9117</INCLINATION><RA_OF_ASC_NODE>83.0491</RA_OF_ASC_NODE><ARG_OF_PERICENTER>118.3677</ARG_OF_PERICENTER><MEAN_ANOMALY>241.7672</MEAN_ANOMALY></meanElements><tleParameters><EPHEMERIS_TYPE>0</EPHEMERIS_TYPE><CLASSIFICATION_TYPE>U</CLASSIFICATION_TYPE><NORAD_CAT_ID>55171</NORAD_CAT_ID><ELEMENT_SET_NO>999</ELEMENT_SET_NO><REV_AT_EPOCH>9838</REV_AT_EPOCH><BSTAR>.35E-3</BSTAR><MEAN_MOTION_DOT>.151E-5</MEAN_MOTION_DOT><MEAN_MOTION_DDOT>0</MEAN_MOTION_DDOT></tleParameters></data></segment></body></omm>
<omm id="CCSDS_OMM_VERS" version="2.0">
<header><CREATION_DATE/><ORIGINATOR/></header><body><segment><metadata><OBJECT_NAME>ONEWEB-0709</OBJECT_NAME><OBJECT_ID>2023-004AJ</OBJECT_ID><CENTER_NAME>EARTH</CENTER_NAME><REF_FRAME>TEME</REF_FRAME><TIME_SYSTEM>UTC</TIME_SYSTEM><MEAN_ELEMENT_THEORY>SGP4</MEAN_ELEMENT_THEORY></metadata><data><meanElements><EPOCH>2024-12-23T19:03:48.851424</EPOCH><MEAN_MOTION>13.11417660</MEAN_MOTION><ECCENTRICITY>.0001645</ECCENTRICITY><INCLINATION>87.8902</INCLINATION><RA_OF_ASC_NODE>128.7878</RA_OF_ASC_NODE><ARG_OF_PERICENTER>138.8286</ARG_OF_PERICENTER><MEAN_ANOMALY>221.2966</MEAN_ANOMALY></meanElements><tleParameters><EPHEMERIS_TYPE>0</EPHEMERIS_TYPE><CLASSIFICATION_TYPE>U</CLASSIFICATION_TYPE><NORAD_CAT_ID>55172</NORAD_CAT_ID><ELEMENT_SET_NO>999</ELEMENT_SET_NO><REV_AT_EPOCH>9505</REV_AT_EPOCH><BSTAR>-.63898E-3</BSTAR><MEAN_MOTION_DOT>-.214E-5</MEAN_MOTION_DOT><MEAN_MOTION_DDOT>0</MEAN_MOTION_DDOT></tleParameters></data></segment></body></omm>
<omm id="CCSDS_OMM_VERS" version="2.0">
<header><CREATION_DATE/><ORIGINATOR/></header><body><segment><metadata><OBJECT_NAME>ONEWEB-0710</OBJECT_NAME><OBJECT_ID>2023-004AK</OBJECT_ID><CENTER_NAME>EARTH</CENTER_NAME><REF_FRAME>TEME</REF_FRAME><TIME_SYSTEM>UTC</TIME_SYSTEM><MEAN_ELEMENT_THEORY>SGP4</MEAN_ELEMENT_THEORY></metadata><data><meanElements><EPOCH>2024-12-23T09:16:22.602144</EPOCH><MEAN_MOTION>13.17647610</MEAN_MOTION><ECCENTRICITY>.0001703</ECCENTRICITY><INCLINATION>87.9099</INCLINATION><RA_OF_ASC_NODE>113.6284</RA_OF_ASC_NODE><ARG_OF_PERICENTER>99.5901</ARG_OF_PERICENTER><MEAN_ANOMALY>260.5423</MEAN_ANOMALY></meanElements><tleParameters><EPHEMERIS_TYPE>0</EPHEMERIS_TYPE><CLASSIFICATION_TYPE>U</CLASSIFICATION_TYPE><NORAD_CAT_ID>55173</NORAD_CAT_ID><ELEMENT_SET_NO>999</ELEMENT_SET_NO><REV_AT_EPOCH>9636</REV_AT_EPOCH><BSTAR>.26671E-3</BSTAR><MEAN_MOTION_DOT>.116E-5</MEAN_MOTION_DOT><MEAN_MOTION_DDOT>0</MEAN_MOTION_DDOT></tleParameters></data></segment></body></omm>
<omm id="CCSDS_OMM_VERS" version="2.0">
<header><CREATION_DATE/><ORIGINATOR/></header><body><segment><metadata><OBJECT_NAME>ONEWEB-0711</OBJECT_NAME><OBJECT_ID>2023-004AL</OBJECT_ID><CENTER_NAME>EARTH</CENTER_NAME><REF_FRAME>TEME</REF_FRAME><TIME_SYSTEM>UTC</TIME_SYSTEM><MEAN_ELEMENT_THEORY>SGP4</MEAN_ELEMENT_THEORY></metadata><data><meanElements><EPOCH>2024-12-23T09:12:58.744800</EPOCH><MEAN_MOTION>13.11415777</MEAN_MOTION><ECCENTRICITY>.0002351</ECCENTRICITY><INCLINATION>87.8900</INCLINATION><RA_OF_ASC_NODE>128.8379</RA_OF_ASC_NODE><ARG_OF_PERICENTER>96.0967</ARG_OF_PERICENTER><MEAN_ANOMALY>264.0429</MEAN_ANOMALY></meanElements><tleParameters><EPHEMERIS_TYPE>0</EPHEMERIS_TYPE><CLASSIFICATION_TYPE>U</CLASSIFICATION_TYPE><NORAD_CAT_ID>55174</NORAD_CAT_ID><ELEMENT_SET_NO>999</ELEMENT_SET_NO><REV_AT_EPOCH>9495</REV_AT_EPOCH><BSTAR>-.24979E-3</BSTAR><MEAN_MOTION_DOT>-.76E-6</MEAN_MOTION_DOT><MEAN_MOTION_DDOT>0</MEAN_MOTION_DDOT></tleParameters></data></segment></body></omm>
<omm id="CCSDS_OMM_VERS" version="2.0">
<header><CREATION_DATE/><ORIGINATOR/></header><body><segment><metadata><OBJECT_NAME>ONEWEB-0713</OBJECT_NAME><OBJECT_ID>2023-004AM</OBJECT_ID><CENTER_NAME>EARTH</CENTER_NAME><REF_FRAME>TEME</REF_FRAME><TIME_SYSTEM>UTC</TIME_SYSTEM><MEAN_ELEMENT_THEORY>SGP4</MEAN_ELEMENT_THEORY></metadata><data><meanElements><EPOCH>2024-12-23T09:39:48.761280</EPOCH><MEAN_MOTION>13.11419195</MEAN_MOTION><ECCENTRICITY>.00018</ECCENTRICITY><INCLINATION>87.8901</INCLINATION><RA_OF_ASC_NODE>128.8423</RA_OF_ASC_NODE><ARG_OF_PERICENTER>97.6574</ARG_OF_PERICENTER><MEAN_ANOMALY>262.4759</MEAN_ANOMALY></meanElements><tleParameters><EPHEMERIS_TYPE>0</EPHEMERIS_TYPE><CLASSIFICATION_TYPE>U</CLASSIFICATION_TYPE><NORAD_CAT_ID>55175</NORAD_CAT_ID><ELEMENT_SET_NO>999</ELEMENT_SET_NO><REV_AT_EPOCH>9494</REV_AT_EPOCH><BSTAR>-.13628E-2</BSTAR><MEAN_MOTION_DOT>-.47E-5</MEAN_MOTION_DOT><MEAN_MOTION_DDOT>0</MEAN_MOTION_DDOT></tleParameters></data></segment></body></omm>
<omm id="CCSDS_OMM_VERS" version="2.0">
<header><CREATION_DATE/><ORIGINATOR/></header><body><segment><metadata><OBJECT_NAME>ONEWEB-0715</OBJECT_NAME><OBJECT_ID>2023-004AN</OBJECT_ID><CENTER_NAME>EARTH</CENTER_NAME><REF_FRAME>TEME</REF_FRAME><TIME_SYSTEM>UTC</TIME_SYSTEM><MEAN_ELEMENT_THEORY>SGP4</MEAN_ELEMENT_THEORY></metadata><data><meanElements><EPOCH>2024-12-23T09:32:29.175360</EPOCH><MEAN_MOTION>13.11418339</MEAN_MOTION><ECCENTRICITY>.0001689</ECCENTRICITY><INCLINATION>87.8901</INCLINATION><RA_OF_ASC_NODE>128.8436</RA_OF_ASC_NODE><ARG_OF_PERICENTER>116.1152</ARG_OF_PERICENTER><MEAN_ANOMALY>244.0150</MEAN_ANOMALY></meanElements><tleParameters><EPHEMERIS_TYPE>0</EPHEMERIS_TYPE><CLASSIFICATION_TYPE>U</CLASSIFICATION_TYPE><NORAD_CAT_ID>55176</NORAD_CAT_ID><ELEMENT_SET_NO>999</ELEMENT_SET_NO><REV_AT_EPOCH>9498</REV_AT_EPOCH><BSTAR>-.12706E-2</BSTAR><MEAN_MOTION_DOT>-.438E-5</MEAN_MOTION_DOT><MEAN_MOTION_DDOT>0</MEAN_MOTION_DDOT></tleParameters></data></segment></body></omm>

</ndm>
