ONEWEB-0628             
1 55169U 23004AF  24358.80630002  .00000362  00000+0  96943-3 0  9990
2 55169  87.8888  98.2431 0002359  94.7063 265.4335 13.12445091 97150
ONEWEB-0629             
1 55170U 23004AG  24358.82766523 -.00000002  00000+0 -37477-4 0  9993
2 55170  87.9100 113.5172 0001684  89.1304 271.0021 13.17649665 96421
ONEWEB-0631             
1 55171U 23004AH  24358.25332037  .00000151  00000+0  35000-3 0  9992
2 55171  87.9117  83.0491 0002148 118.3677 241.7672 13.18685419 98380
ONEWEB-0709             
1 55172U 23004AJ  24358.79431541 -.00000214  00000+0 -63898-3 0  9990
2 55172  87.8902 128.7878 0001645 138.8286 221.2966 13.11417660 95056
ONEWEB-0710             
1 55173U 23004AK  24358.38637271  .00000116  00000+0  26671-3 0  9991
2 55173  87.9099 113.6284 0001703  99.5901 260.5423 13.17647610 96366
ONEWEB-0711             
1 55174U 23004AL  24358.38401325 -.00000076  00000+0 -24979-3 0  9997
2 55174  87.8900 128.8379 0002351  96.0967 264.0429 13.11415777 94953
ONEWEB-0713             
1 55175U 23004AM  24358.40264770 -.00000470  00000+0 -13628-2 0  9998
2 55175  87.8901 128.8423 0001800  97.6574 262.4759 13.11419195 94949
ONEWEB-0715             
1 55176U 23004AN  24358.39755990 -.00000438  00000+0 -12706-2 0  9996
2 55176  87.8901 128.8436 0001689 116.1152 244.0150 13.11418339 94982
